ONEWEB-0389             
1 50469U 21132A   25085.78280595  .00000117  00000+0  26684-3 0  9994
2 50469  87.9003  94.9860 0001912 104.0334 256.1010 13.17649091159165
ONEWEB-0390             
1 50470U 21132B   25085.78450571  .00000205  00000+0  49496-3 0  9993
2 50470  87.9000  94.9928 0001623  88.6344 271.4974 13.17650725159161
ONEWEB-0391             
1 50471U 21132C   25085.78617494  .00000094  00000+0  20908-3 0  9996
2 50471  87.9015  94.9986 0001748 119.9982 240.1324 13.17652385159162
ONEWEB-0392             
1 50472U 21132D   25085.96843056  .00000034  00000+0  53881-4 0  9993
2 50472  87.8996  94.9219 0001925 104.7493 255.3852 13.17650826159224
ONEWEB-0393             
1 50473U 21132E   25085.94156748  .00000148  00000+0  34859-3 0  9996
2 50473  87.9003  94.9325 0001846  96.7258 263.4084 13.17651283159218
ONEWEB-0394             
1 50474U 21132F   25085.95765199  .00000007  00000+0 -14745-4 0  9992
2 50474  87.9076  64.3495 0001990  89.3383 270.7977 13.18687885162657
ONEWEB-0395             
1 50475U 21132G   25085.76278624  .00000084  00000+0  20149-3 0  9992
2 50475  87.8801 110.2827 0001722 100.9339 259.1982 13.11415197157072
ONEWEB-0396             
1 50476U 21132H   25085.95134388  .00000000  00000+0 -31591-4 0  9995
2 50476  87.9078  64.3606 0002018  89.8619 270.2745 13.18686827162691
ONEWEB-0397             
1 50477U 21132J   25085.96556849  .00000092  00000+0  20012-3 0  9992
2 50477  87.9076  64.3593 0002144  88.0307 272.1070 13.18686995162676
ONEWEB-0398             
1 50478U 21132K   25085.95945581  .00000225  00000+0  60021-3 0  9999
2 50478  87.8800 110.2114 0001517  88.6504 271.4798 13.11416796156999
ONEWEB-0399             
1 50479U 21132L   25085.79329880 -.00000312  00000+0 -91628-3 0  9996
2 50479  87.8801 110.2664 0002248 100.7209 259.4172 13.11417650156960
ONEWEB-0400             
1 50480U 21132M   25085.64151108  .00000103  00000+0  22846-3 0  9990
2 50480  87.9075  64.4169 0001744  81.4418 278.6912 13.18688288162622
ONEWEB-0401             
1 50481U 21132N   25085.68416703  .00000004  00000+0 -21534-4 0  9995
2 50481  87.9073  64.4017 0002237  85.4199 274.7188 13.18688918162634
ONEWEB-0402             
1 50482U 21132P   25085.87704665 -.00000054  00000+0 -16871-3 0  9997
2 50482  87.9075  64.3611 0002634  85.2996 274.8436 13.18686226162682
ONEWEB-0403             
1 50483U 21132Q   25085.90075387  .00000085  00000+0  18212-3 0  9997
2 50483  87.9074  64.3694 0001851  88.2433 271.8911 13.18686772162649
ONEWEB-0404             
1 50484U 21132R   25085.77464789 -.00000333  00000+0 -97520-3 0  9998
2 50484  87.8807 110.2646 0002002 105.7100 254.4249 13.11415322157050
ONEWEB-0405             
1 50485U 21132S   25085.68893764 -.00000057  00000+0 -17756-3 0  9994
2 50485  87.9077  64.4016 0002282  89.0617 271.0776 13.18687022163017
ONEWEB-0406             
1 50486U 21132T   25085.67787037  .00000064  00000+0  12974-3 0  9992
2 50486  87.9079  64.4218 0001432  97.2662 262.8633 13.18686792162642
ONEWEB-0407             
1 50487U 21132U   25085.67154581  .00000000  00000+0 -31826-4 0  9994
2 50487  87.9074  64.4118 0002124  88.2476 271.8899 13.18686451162588
ONEWEB-0409             
1 50488U 21132V   25085.77295132 -.00000286  00000+0 -84384-3 0  9997
2 50488  87.8797 110.2367 0001687 101.9838 258.1479 13.11414796156943
ONEWEB-0412             
1 50489U 21132W   25085.96398610  .00000040  00000+0  68351-4 0  9997
2 50489  87.9077  64.3668 0002375  86.2505 273.8899 13.18687242162717
ONEWEB-0413             
1 50490U 21132X   25085.66522270  .00000042  00000+0  72812-4 0  9996
2 50490  87.9079  64.4381 0002331  82.9971 277.1426 13.18687012162613
ONEWEB-0414             
1 50491U 21132Y   25085.95450332  .00000053  00000+0  10193-3 0  9993
2 50491  87.9074  64.3478 0002227  90.0435 270.0952 13.18687487162683
ONEWEB-0417             
1 50492U 21132Z   25085.96240182  .00000051  00000+0  96827-4 0  9992
2 50492  87.9083  64.3688 0001844  90.9706 269.1637 13.18687341162667
ONEWEB-0418             
1 50493U 21132AA  25085.89585785  .00000046  00000+0  83000-4 0  9999
2 50493  87.9078  64.3743 0001750  96.7506 263.3826 13.18689570162710
ONEWEB-0419             
1 50494U 21132AB  25085.68578018 -.00000002  00000+0 -39116-4 0  9991
2 50494  87.9072  64.4232 0001640  86.8289 273.3031 13.18686615162609
ONEWEB-0420             
1 50495U 21132AC  25085.95607795  .00000012  00000+0 -13572-5 0  9996
2 50495  87.9075  64.3783 0002144  79.6480 280.4894 13.18684242162639
ONEWEB-0421             
1 50496U 21132AD  25085.94976330  .00000043  00000+0  77297-4 0  9996
2 50496  87.9083  64.3670 0002250  89.3207 270.8183 13.18687145162670
ONEWEB-0424             
1 50497U 21132AE  25085.68101615  .00000033  00000+0  50293-4 0  9990
2 50497  87.9076  64.4132 0001461  80.6835 279.4462 13.18687384162660
ONEWEB-0426             
1 50498U 21132AF  25085.94659707  .00000028  00000+0  38648-4 0  9994
2 50498  87.9075  64.3661 0002119 104.4113 255.7254 13.18687354162642
ONEWEB-0427             
1 50499U 21132AG  25085.90707646  .00000040  00000+0  68307-4 0  9996
2 50499  87.9073  64.3551 0001795  91.9215 268.2123 13.18687042162661
ONEWEB-0429             
1 50500U 21132AH  25085.89443158  .00000078  00000+0  16592-3 0  9991
2 50500  87.9079  64.3809 0001983  80.8119 279.3237 13.18684916162638
ONEWEB-0430             
1 50501U 21132AJ  25085.95924765  .00000033  00000+0  49944-4 0  9996
2 50501  87.9077  64.3631 0001738  76.4946 283.6380 13.18686773162682
ONEWEB-0432             
1 50502U 21132AK  25085.68734086 -.00000063  00000+0 -19166-3 0  9999
2 50502  87.9076  64.4070 0001127 104.5414 255.5844 13.18688402162601
ONEWEB-0440             
1 50503U 21132AL  25085.90233646  .00000081  00000+0  17285-3 0  9999
2 50503  87.9077  64.3614 0002374  84.5337 275.6066 13.18687069162621
ONEWEB-0450             
1 50504U 21132AM  25085.66852865 -.00000046  00000+0 -14876-3 0  9999
2 50504  87.9077  64.4367 0002025  75.1873 284.9484 13.18685670162625
ONEWEB-0410             
1 51622U 22012A   25085.95323589  .00000046  00000+0  83986-4 0  9994
2 51622  87.9002  94.9238 0002389 127.4236 232.7113 13.17650687154807
ONEWEB-0411             
1 51623U 22012B   25085.48170922  .00000716  00000+0  20149-2 0  9998
2 51623  87.8828 125.5190 0001493  83.1668 276.9629 13.10373909150656
ONEWEB-0415             
1 51624U 22012C   25085.55474805  .00000755  00000+0  21272-2 0  9995
2 51624  87.8825 125.5133 0001722  91.0394 269.0931 13.10374419150667
ONEWEB-0416             
1 51625U 22012D   25085.87179783  .00000550  00000+0  15398-2 0  9993
2 51625  87.8829 125.4616 0001953  97.6923 262.4427 13.10370949150743
ONEWEB-0422             
1 51626U 22012E   25085.96337017  .00000080  00000+0  17297-3 0  9999
2 51626  87.9003  94.9276 0002504  76.4281 283.7129 13.17650146154911
ONEWEB-0423             
1 51627U 22012F   25085.95661713  .00000099  00000+0  22278-3 0  9997
2 51627  87.9003  94.9342 0002088  90.8165 269.3206 13.17651567154806
ONEWEB-0425             
1 51628U 22012G   25085.80539630  .00000054  00000+0  11864-3 0  9994
2 51628  87.8824 125.4488 0002231 105.8491 254.2882 13.10369577150738
ONEWEB-0428             
1 51629U 22012H   25085.48005581  .00000672  00000+0  18895-2 0  9998
2 51629  87.8828 125.5334 0002002  89.9275 270.2082 13.10373236150650
ONEWEB-0431             
1 51630U 22012J   25085.83179850 -.00000599  00000+0 -17523-2 0  9997
2 51630  87.8823 125.4419 0001780  78.9303 281.2025 13.10375181150753
ONEWEB-0434             
1 51631U 22012K   25085.80870891 -.00000059  00000+0 -20462-3 0  9996
2 51631  87.8827 125.4804 0002444 111.2220 248.9169 13.10369411150739
ONEWEB-0435             
1 51632U 22012L   25085.81700198 -.00000424  00000+0 -12505-2 0  9994
2 51632  87.8826 125.4709 0002245  86.9853 273.1532 13.10370364150724
ONEWEB-0436             
1 51633U 22012M   25085.72038177  .00000108  00000+0  24616-3 0  9990
2 51633  87.9002  94.9739 0002003  82.3018 277.8341 13.17650915154756
ONEWEB-0438             
1 51634U 22012N   25085.80041771  .00000379  00000+0  10506-2 0  9996
2 51634  87.8828 125.4749 0002089 102.2997 257.8364 13.10369589152045
ONEWEB-0439             
1 51635U 22012P   25085.80373493  .00000204  00000+0  54798-3 0  9995
2 51635  87.8827 125.4614 0002081  95.9727 264.1638 13.10369471150736
ONEWEB-0442             
1 51636U 22012Q   25085.71278397  .00000024  00000+0  27401-4 0  9995
2 51636  87.9002  95.0198 0001793 111.5409 248.5913 13.17650663154743
ONEWEB-0443             
1 51637U 22012R   25085.95997973 -.00000290  00000+0 -78113-3 0  9992
2 51637  87.9007  94.9835 0002267  95.7411 264.3979 13.17649253154828
ONEWEB-0444             
1 51638U 22012S   25085.87013963  .00000613  00000+0  17183-2 0  9998
2 51638  87.8820 125.4556 0002189  94.2187 265.9191 13.10371834150759
ONEWEB-0445             
1 51639U 22012T   25085.81534352 -.00000365  00000+0 -10827-2 0  9997
2 51639  87.8817 125.4253 0001835 100.3729 259.7605 13.10369733152037
ONEWEB-0446             
1 51640U 22012U   25085.86848055  .00000686  00000+0  19301-2 0  9992
2 51640  87.8826 125.4651 0001730  97.5099 262.6225 13.10371951150744
ONEWEB-0448             
1 51641U 22012V   25085.87345853  .00000493  00000+0  13771-2 0  9993
2 51641  87.8826 125.4640 0002101  98.5730 261.5635 13.10370339152002
ONEWEB-0449             
1 51642U 22012W   25085.80207722  .00000290  00000+0  79547-3 0  9998
2 51642  87.8821 125.4575 0002097 104.4369 255.6991 13.10369688150714
ONEWEB-0451             
1 51643U 22012X   25085.48918947  .00000134  00000+0  31178-3 0  9996
2 51643  87.8998  95.0119 0001985  97.1161 263.0196 13.17651415154701
ONEWEB-0452             
1 51644U 22012Y   25085.94312242  .00000122  00000+0  28018-3 0  9990
2 51644  87.9005  94.9784 0002228  96.9486 263.1899 13.17651370154774
